OBJECT_NAME,OBJECT_ID,EPOCH,MEAN_MOTION,ECCENTRICITY,INCLINATION,RA_OF_ASC_NODE,ARG_OF_PERICENTER,MEAN_ANOMALY,EPHEMERIS_TYPE,CLASSIFICATION_TYPE,NORAD_CAT_ID,ELEMENT_SET_NO,REV_AT_EPOCH,BSTAR,MEAN_MOTION_DOT,MEAN_MOTION_DDOT
FORESAIL-1 PRIME,2025-276DS,2026-05-10T04:08:03.848928,15.18350873,.00015048,97.4206,204.1474,198.3827,161.7353,0,U,66778,999,2463,.14906036E-3,.2994E-4,0
